NORAD_CAT_ID,OBJECT_NAME,OBJECT_TYPE,EPOCH,MEAN_MOTION,ECCENTRICITY,INCLINATION,RA_OF_ASC_NODE,ARG_OF_PERICENTER,MEAN_ANOMALY,BSTAR,MEAN_MOTION_DOT,MEAN_MOTION_DDOT,TLE_LINE0,TLE_LINE1,TLE_LINE2,SEMIMAJOR_AXIS,PERIOD,APOGEE,PERIGEE,DECAYED
50159.0,STARLINK-3297,PAYLOAD,2022-04-22 22:00:00,15.08821257,0.0002308,53.216,139.2709,31.315,137.9891,0.0015539999999999,0.00024518,0.0,0 STARLINK-3297,1 50159U 21125D   22112.91667824  .00024518  00000-0  15540-2 0  9999,2 50159  53.2160 139.2709 0002308  31.3150 137.9891 15.08821257 19036,6917.938,95.439,541.399,538.206,0.0
50159.0,STARLINK-3297,PAYLOAD,2022-04-23 14:00:01,15.08833801,0.0002563,53.2161,136.2798,29.673,162.8019,0.0013514,0.00021282,0.0,0 STARLINK-3297,1 50159U 21125D   22113.58334491  .00021282  00000-0  13514-2 0  9998,2 50159  53.2161 136.2798 0002563  29.6730 162.8019 15.08833801 19137,6917.899,95.438,541.5369999999998,537.991,0.0
50159.0,STARLINK-3297,PAYLOAD,2022-04-24 14:00:01,15.08861047,0.0002537,53.2161,131.7908,30.1171,197.1695,-0.0021867,-0.00034943,0.0,0 STARLINK-3297,1 50159U 21125D   22114.58334491 -.00034943  00000-0 -21867-2 0  9999,2 50159  53.2161 131.7908 0002537  30.1171 197.1695 15.08861047 19287,6917.816,95.436,541.436,537.9259999999998,0.0
50159.0,STARLINK-3297,PAYLOAD,2022-04-25 06:00:00,15.08850209,0.0002435,53.2162,128.7977,32.5206,217.9644,-0.0011973,-0.00019299,0.0,0 STARLINK-3297,1 50159U 21125D   22115.25001157 -.00019299  00000-0 -11973-2 0  9998,2 50159  53.2162 128.7977 0002435  32.5206 217.9644 15.08850209 19386,6917.849,95.437,541.399,538.03,0.0
50159.0,STARLINK-3297,PAYLOAD,2022-04-25 14:00:01,15.0885924,0.0002489,53.2156,127.3016,30.4098,231.6667,-0.0026427,-0.00042126,0.0,0 STARLINK-3297,1 50159U 21125D   22115.58334491 -.00042126  00000-0 -26427-2 0  9999,2 50159  53.2156 127.3016 0002489  30.4098 231.6667 15.08859240  3591,6917.821999999999,95.436,541.408,537.965,0.0
50159.0,STARLINK-3297,PAYLOAD,2022-04-25 22:00:00,15.08803387,0.0002266,53.2155,125.8035,33.0429,240.6464,0.0025227,0.0004005,0.0,0 STARLINK-3297,1 50159U 21125D   22115.91667824  .00040050  00000-0  25227-2 0  9994,2 50159  53.2155 125.8035 0002266  33.0429 240.6464 15.08803387  3602,6917.9919999999975,95.44,541.425,538.29,0.0
50159.0,STARLINK-3297,PAYLOAD,2022-04-26 06:00:00,15.08836123,0.0002426,53.2155,124.3087,32.6019,252.6593,-0.0010121,-0.00016359,0.0,0 STARLINK-3297,1 50159U 21125D   22116.25001157 -.00016359  00000-0 -10121-2 0  9997,2 50159  53.2155 124.3087 0002426  32.6019 252.6593 15.08836123 19530,6917.892,95.438,541.436,538.0790000000002,0.0
50159.0,STARLINK-3297,PAYLOAD,2022-04-26 14:00:01,15.08839343,0.0002494,53.215,122.8123,31.0864,265.8124,-0.0008136,-0.00013214,0.0,0 STARLINK-3297,1 50159U 21125D   22116.58335648 -.00013214  00000-0 -81360-3 0  9999,2 50159  53.2150 122.8123 0002494  31.0864 265.8124 15.08839343  3597,6917.882,95.438,541.4730000000002,538.0219999999998,0.0
50159.0,STARLINK-3297,PAYLOAD,2022-04-26 22:00:00,15.0881256,0.0002325,53.215,121.3143,35.6935,272.7382,0.0029717,0.0004729,0.0,0 STARLINK-3297,1 50159U 21125D   22116.91667824  .00047290  00000-0  29717-2 0  9996,2 50159  53.2150 121.3143 0002325  35.6935 272.7382 15.08812560 19632,6917.964,95.439,541.438,538.221,0.0
50159.0,STARLINK-3297,PAYLOAD,2022-04-27 14:00:01,15.08865013,0.0002537,53.2146,118.3228,32.1667,299.5039,-0.0029239,-0.00046556,0.0,0 STARLINK-3297,1 50159U 21125D   22117.58335648 -.00046556  00000-0 -29239-2 0  9991,2 50159  53.2146 118.3228 0002537  32.1667 299.5039 15.08865013 19734,6917.804,95.436,541.424,537.914,0.0
50159.0,STARLINK-3297,PAYLOAD,2022-04-28 06:00:00,15.0883827,0.0002562,53.2148,115.3299,34.3869,320.4201,-0.00067716,-0.00011049,0.0,0 STARLINK-3297,1 50159U 21125D   22118.25001157 -.00011049  00000-0 -67716-3 0  9993,2 50159  53.2148 115.3299 0002562  34.3869 320.4201 15.08838270 19838,6917.886,95.438,541.523,537.9780000000002,0.0
50159.0,STARLINK-3297,PAYLOAD,2022-04-28 14:00:01,15.08853549,0.0002587,53.2147,113.8331,32.8676,333.5226,-0.0011961,-0.00019282,0.0,0 STARLINK-3297,1 50159U 21125D   22118.58334491 -.00019282  00000-0 -11961-2 0  9996,2 50159  53.2147 113.8331 0002587  32.8676 333.5226 15.08853549  3609,6917.839,95.437,541.494,537.914,0.0
50159.0,STARLINK-3297,PAYLOAD,2022-04-28 22:00:01,15.08840305,0.0002419,53.215,112.3351,36.9676,341.0954,0.0014449,0.00022783,0.0,0 STARLINK-3297,1 50159U 21125D   22118.91668981  .00022783  00000-0  14449-2 0  9999,2 50159  53.2150 112.3351 0002419  36.9676 341.0954 15.08840305 19939,6917.879,95.438,541.418,538.071,0.0
50159.0,STARLINK-3297,PAYLOAD,2022-04-29 14:00:01,15.08863099,0.0002583999999999,53.2152,109.3434,32.3845,8.8079,-0.0030364,-0.00048322,0.0,0 STARLINK-3297,1 50159U 21125D   22119.58334491 -.00048322  00000-0 -30364-2 0  9992,2 50159  53.2152 109.3434 0002584  32.3845   8.8079 15.08863099 20034,6917.81,95.436,541.462,537.887,0.0
50159.0,STARLINK-3297,PAYLOAD,2022-04-29 22:00:00,15.0881322,0.0002397,53.2156,107.8456,36.0078,16.7952,0.0022579,0.00035804,0.0,0 STARLINK-3297,1 50159U 21125D   22119.91667824  .00035804  00000-0  22579-2 0  9996,2 50159  53.2156 107.8456 0002397  36.0078  16.7952 15.08813220  3609,6917.962,95.439,541.485,538.169,0.0
50159.0,STARLINK-3297,PAYLOAD,2022-04-30 06:00:00,15.08835328,0.0002618,53.2158,106.3509,34.3058,30.0761,-0.00021958,-3.781e-05,0.0,0 STARLINK-3297,1 50159U 21125D   22120.25001157 -.00003781  00000-0 -21958-3 0  9998,2 50159  53.2158 106.3509 0002618  34.3058  30.0761 15.08835328 20147,6917.895,95.438,541.571,537.9490000000002,0.0
50159.0,STARLINK-3297,PAYLOAD,2022-04-30 14:00:01,15.08860409,0.0002571,53.2159,104.8539,33.0728,42.8873,-0.0022919,-0.00036602,0.0,0 STARLINK-3297,1 50159U 21125D   22120.58334491 -.00036602  00000-0 -22919-2 0  9999,2 50159  53.2159 104.8539 0002571  33.0728  42.8873 15.08860409  3573,6917.818,95.436,541.462,537.904,0.0
50159.0,STARLINK-3297,PAYLOAD,2022-04-30 22:00:00,15.08822665,0.0002381,53.2163,103.3563,36.2142,51.353,0.00089756,0.00014019,0.0,0 STARLINK-3297,1 50159U 21125D   22120.91667824  .00014019  00000-0  89756-3 0  9994,2 50159  53.2163 103.3563 0002381  36.2142  51.3530 15.08822665  3570,6917.933000000001,95.439,541.446,538.151,0.0
50159.0,STARLINK-3297,PAYLOAD,2022-05-01 14:00:01,15.0885329,0.0002512,53.2163,100.3647,33.1838,77.5368,-0.0026148,-0.0004168,0.0,0 STARLINK-3297,1 50159U 21125D   22121.58334491 -.00041680  00000-0 -26148-2 0  9990,2 50159  53.2163 100.3647 0002512  33.1838  77.5368 15.08853290 20345,6917.84,95.437,541.443,537.967,0.0
50159.0,STARLINK-3297,PAYLOAD,2022-05-01 22:00:01,15.08818881,0.0002325,53.2168,98.8673,36.2527,86.1284,0.00052685,8.102e-05,0.0,0 STARLINK-3297,1 50159U 21125D   22121.91668981  .00008102  00000-0  52685-3 0  9997,2 50159  53.2168  98.8673 0002325  36.2527  86.1284 15.08818881  3566,6917.945,95.439,541.418,538.202,0.0
50159.0,STARLINK-3297,PAYLOAD,2022-05-02 06:00:00,15.0881637,0.0002525,53.2167,97.3729,33.4153,100.4779,0.00022274,3.256e-05,0.0,0 STARLINK-3297,1 50159U 21125D   22122.25001157  .00003256  00000-0  22274-3 0  9997,2 50159  53.2167  97.3729 0002525  33.4153 100.4779 15.08816370 20443,6917.953,95.439,541.564,538.071,0.0
50159.0,STARLINK-3297,PAYLOAD,2022-05-02 14:00:01,15.08838228,0.0002446,53.2165,95.8758,33.9599,111.4955,-0.0017421,-0.00027907,0.0,0 STARLINK-3297,1 50159U 21125D   22122.58334491 -.00027907  00000-0 -17421-2 0  9991,2 50159  53.2165  95.8758 0002446  33.9599 111.4955 15.08838228  3600,6917.886,95.438,541.443,538.059,0.0
50159.0,STARLINK-3297,PAYLOAD,2022-05-02 22:00:01,15.08826782,0.0002326,53.2169,94.3787,38.4017,118.6967,0.0012214,0.00019197,0.0,0 STARLINK-3297,1 50159U 21125D   22122.91668981  .00019197  00000-0  12214-2 0  9997,2 50159  53.2169  94.3787 0002326  38.4017 118.6967 15.08826782  3561,6917.920999999999,95.438,541.395,538.177,0.0
50159.0,STARLINK-3297,PAYLOAD,2022-05-03 14:00:01,15.08856334,0.0002453,53.2165,91.3869,36.7196,143.4923,-0.0016643,-0.00026691,0.0,0 STARLINK-3297,1 50159U 21125D   22123.58334491 -.00026691  00000-0 -16643-2 0  9996,2 50159  53.2165  91.3869 0002453  36.7196 143.4923 15.08856334 20647,6917.83,95.437,541.3919999999998,537.999,0.0
50159.0,STARLINK-3297,PAYLOAD,2022-05-03 22:00:00,15.08850944,0.0002358,53.2167,89.8859,41.3838,150.4302,0.00072818,0.00011323,0.0,0 STARLINK-3297,1 50159U 21125D   22123.91667824  .00011323  00000-0  72818-3 0  9993,2 50159  53.2167  89.8859 0002358  41.3838 150.4302 15.08850944  3606,6917.847,95.437,541.3430000000002,538.081,0.0
50159.0,STARLINK-3297,PAYLOAD,2022-05-04 06:00:02,15.08838558,0.0002535,53.2166,88.3955,36.4938,166.9997,-0.00086981,-0.00014105,0.0,0 STARLINK-3297,1 50159U 21125D   22124.25002315 -.00014105  00000-0 -86981-3 0  9998,2 50159  53.2166  88.3955 0002535  36.4938 166.9997 15.08838558 20742,6917.885,95.438,541.503,537.996,0.0
50159.0,STARLINK-3297,PAYLOAD,2022-05-04 14:00:01,15.08848121,0.0002401,53.2164,86.898,36.8166,178.2034,-0.0014461,-0.00023235,0.0,0 STARLINK-3297,1 50159U 21125D   22124.58334491 -.00023235  00000-0 -14461-2 0  9994,2 50159  53.2164  86.8980 0002401  36.8166 178.2034 15.08848121  3601,6917.856,95.437,541.382,538.06,0.0
50159.0,STARLINK-3297,PAYLOAD,2022-05-04 20:00:01,15.08826678,0.0002332,53.2165,85.7749,40.3937,93.3887,0.0025212,0.00040051,0.0,0 STARLINK-3297,1 50159U 21125D   22124.83335648  .00040051  00000-0  25212-2 0  9996,2 50159  53.2165  85.7749 0002332  40.3937  93.3887 15.08826678 20832,6917.920999999999,95.438,541.399,538.173,0.0
50159.0,STARLINK-3297,PAYLOAD,2022-05-04 22:00:01,15.08846482,0.0002354,53.2166,85.4012,41.247,185.427,0.00074413,0.00011577,0.0,0 STARLINK-3297,1 50159U 21125D   22124.91668981  .00011577  00000-0  74413-3 0  9993,2 50159  53.2166  85.4012 0002354  41.2470 185.4270 15.08846482  3609,6917.861,95.437,541.354,538.097,0.0
